NORAD_CAT_ID,OBJECT_NAME,OBJECT_TYPE,EPOCH,MEAN_MOTION,ECCENTRICITY,INCLINATION,RA_OF_ASC_NODE,ARG_OF_PERICENTER,MEAN_ANOMALY,BSTAR,MEAN_MOTION_DOT,MEAN_MOTION_DDOT,TLE_LINE0,TLE_LINE1,TLE_LINE2,SEMIMAJOR_AXIS,PERIOD,APOGEE,PERIGEE,DECAYED
55285.0,STARLINK-5332,PAYLOAD,2024-02-29 10:48:27,14.98329518,0.0002981,69.9994,68.2486,270.0512,90.0306,7.6337e-05,8.18e-06,0.0,0 STARLINK-5332,1 55285U 23010S   24060.45032015  .00000818  00000-0  76337-4 0  9990,2 55285  69.9994  68.2486 0002981 270.0512  90.0306 14.98329518 63911,6950.194,96.107,574.131,569.988,0.0
55285.0,STARLINK-5332,PAYLOAD,2024-02-29 22:01:24,14.98328384,0.0002901,69.9996,67.0702,271.3615,88.7212,1.8514e-05,1.28e-06,0.0,0 STARLINK-5332,1 55285U 23010S   24060.91764288  .00000128  00000-0  18514-4 0  9992,2 55285  69.9996  67.0702 0002901 271.3615  88.7212 14.98328384 63988,6950.198,96.107,574.079,570.047,0.0
55285.0,STARLINK-5332,PAYLOAD,2024-03-01 04:25:56,14.98330532,0.0002908,69.9996,66.3969,270.6668,89.4158,-4.9755e-06,-1.52e-06,0.0,0 STARLINK-5332,1 55285U 23010S   24061.18468204 -.00000152  00000-0 -49755-5 0  9992,2 55285  69.9996  66.3969 0002908 270.6668  89.4158 14.98330532 62830,6950.191,96.107,574.077,570.035,0.0
55285.0,STARLINK-5332,PAYLOAD,2024-03-01 10:50:28,14.98331438,0.0002918,69.9997,65.7236,270.8765,89.206,-4.3581e-06,-1.45e-06,0.0,0 STARLINK-5332,1 55285U 23010S   24061.45172138 -.00000145  00000-0 -43581-5 0  9993,2 55285  69.9997  65.7236 0002918 270.8765  89.2060 14.98331438 64065,6950.188,96.107,574.082,570.025,0.0
55285.0,STARLINK-5332,PAYLOAD,2024-03-01 17:15:00,14.98331622,0.0002915,69.9997,65.0501,271.2838,88.7987,2.29e-05,1.8e-06,0.0,0 STARLINK-5332,1 55285U 23010S   24061.71876028  .00000180  00000-0  22900-4 0  9999,2 55285  69.9997  65.0501 0002915 271.2838  88.7987 14.98331622 64108,6950.188,96.107,574.079,570.027,0.0
55285.0,STARLINK-5332,PAYLOAD,2024-03-02 09:16:21,14.98334038,0.0002897,69.9997,63.3669,268.3237,91.759,4.5028e-05,4.44e-06,0.0,0 STARLINK-5332,1 55285U 23010S   24062.38635690  .00000444  00000-0  45028-4 0  9990,2 55285  69.9997  63.3669 0002897 268.3237  91.7590 14.98334038 63010,6950.18,96.107,574.059,570.032,0.0
55285.0,STARLINK-5332,PAYLOAD,2024-03-02 17:17:01,14.98326814,0.0002864,69.9998,62.5252,264.7141,95.3691,3.8652e-05,3.68e-06,0.0,0 STARLINK-5332,1 55285U 23010S   24062.72016129  .00000368  00000-0  38652-4 0  9998,2 55285  69.9998  62.5252 0002864 264.7141  95.3691 14.98326814 63068,6950.203,96.107,574.058,570.077,0.0
55285.0,STARLINK-5332,PAYLOAD,2024-03-03 09:18:22,14.98328212,0.0002922,69.9998,60.8424,267.3495,92.7329,-2.8267e-06,-1.27e-06,0.0,0 STARLINK-5332,1 55285U 23010S   24063.38776167 -.00000127  00000-0 -28267-5 0  9993,2 55285  69.9998  60.8424 0002922 267.3495  92.7329 14.98328212 64352,6950.198,96.107,574.094,570.033,0.0
55285.0,STARLINK-5332,PAYLOAD,2024-03-04 04:31:59,14.98331447,0.0002929,69.9998,58.8227,267.5186,92.5638,-5.0437e-06,-1.53e-06,0.0,0 STARLINK-5332,1 55285U 23010S   24064.18887951 -.00000153  00000-0 -50437-5 0  9999,2 55285  69.9998  58.8227 0002929 267.5186  92.5638 14.98331447 63282,6950.188,96.107,574.089,570.018,0.0
55285.0,STARLINK-5332,PAYLOAD,2024-03-04 09:20:23,14.98336046,0.0003031,69.9996,58.317,269.1994,90.8818,2.484e-05,2.03e-06,0.0,0 STARLINK-5332,1 55285U 23010S   24064.38915534  .00000203  00000-0  24840-4 0  9992,2 55285  69.9996  58.3170 0003031 269.1994  90.8818 14.98336046 64509,6950.174,96.107,574.146,569.933,0.0
55285.0,STARLINK-5332,PAYLOAD,2024-03-04 17:21:03,14.9832914,0.0002899,70.0002,57.4744,261.9461,98.1369,-2.3238e-05,-3.7e-06,0.0,0 STARLINK-5332,1 55285U 23010S   24064.72296022 -.00000370  00000-0 -23238-4 0  9991,2 55285  70.0002  57.4744 0002899 261.9461  98.1369 14.98329140 64551,6950.196,96.107,574.075,570.046,0.0
55285.0,STARLINK-5332,PAYLOAD,2024-03-05 09:22:22,14.98353541,0.000308,69.9997,55.7921,270.2304,89.8502,0.00027865,3.235e-05,0.0,0 STARLINK-5332,1 55285U 23010S   24065.39053554  .00003235  00000-0  27865-3 0  9996,2 55285  69.9997  55.7921 0003080 270.2304  89.8502 14.98353541 64650,6950.12,96.105,574.126,569.844,0.0
55285.0,STARLINK-5332,PAYLOAD,2024-03-06 02:59:53,14.9832698,0.0003102,69.9996,53.9403,272.299,87.7813,-3.6636e-05,-5.3e-06,0.0,0 STARLINK-5332,1 55285U 23010S   24066.12491926 -.00000530  00000-0 -36636-4 0  9991,2 55285  69.9996  53.9403 0003102 272.2990  87.7813 14.98326980 63571,6950.202,96.107,574.223,569.911,0.0
55285.0,STARLINK-5332,PAYLOAD,2024-03-06 09:24:25,14.98329014,0.0003076,69.9998,53.2663,272.7091,87.3716,-5.704e-05,-7.74e-06,0.0,0 STARLINK-5332,1 55285U 23010S   24066.39195879 -.00000774  00000-0 -57040-4 0  9990,2 55285  69.9998  53.2663 0003076 272.7091  87.3716 14.98329014 64807,6950.196,96.107,574.199,569.923,0.0
55285.0,STARLINK-5332,PAYLOAD,2024-03-07 03:01:54,14.98326412,0.0002916,70.0,51.4151,272.4917,87.5908,8.5829e-06,9e-08,0.0,0 STARLINK-5332,1 55285U 23010S   24067.12631983  .00000009  00000-0  85829-5 0  9999,2 55285  70.0000  51.4151 0002916 272.4917  87.5908 14.98326412 63726,6950.204,96.107,574.096,570.042,0.0
55285.0,STARLINK-5332,PAYLOAD,2024-03-07 07:50:17,14.98329891,0.0002998,70.0002,50.9109,270.892,89.1896,4.4469e-05,4.38e-06,0.0,0 STARLINK-5332,1 55285U 23010S   24067.32659663  .00000438  00000-0  44469-4 0  9996,2 55285  70.0002  50.9109 0002998 270.8920  89.1896 14.98329891 64944,6950.193,96.107,574.142,569.975,0.0
55285.0,STARLINK-5332,PAYLOAD,2024-03-08 03:03:54,14.98326325,0.000284,70.0005,48.8915,266.8701,93.2133,9.369e-05,1.025e-05,0.0,0 STARLINK-5332,1 55285U 23010S   24068.12771567  .00001025  00000-0  93690-4 0  9996,2 55285  70.0005  48.8915 0002840 266.8701  93.2133 14.98326325 63876,6950.204,96.107,574.043,570.095,0.0
55285.0,STARLINK-5332,PAYLOAD,2024-03-08 09:28:26,14.98329163,0.0002818,70.0006,48.218,267.9381,92.1455,0.00011746,1.309e-05,0.0,0 STARLINK-5332,1 55285U 23010S   24068.39475380  .00001309  00000-0  11746-3 0  9995,2 55285  70.0006  48.2180 0002818 267.9381  92.1455 14.98329163 65102,6950.195,96.107,574.019,570.102,0.0
55285.0,STARLINK-5332,PAYLOAD,2024-03-08 15:52:59,14.98324696,0.0002818,70.0006,47.5447,269.3645,90.7191,2.8315e-05,2.45e-06,0.0,0 STARLINK-5332,1 55285U 23010S   24068.66179962  .00000245  00000-0  28315-4 0  9991,2 55285  70.0006  47.5447 0002818 269.3645  90.7191 14.98324696 65140,6950.209,96.107,574.033,570.116,0.0
55285.0,STARLINK-5332,PAYLOAD,2024-03-09 04:42:04,14.98323653,0.0002752,70.0005,46.1972,264.4203,95.6643,-2.2565e-05,-3.62e-06,0.0,0 STARLINK-5332,1 55285U 23010S   24069.19588276 -.00000362  00000-0 -22565-4 0  9995,2 55285  70.0005  46.1972 0002752 264.4203  95.6643 14.98323653 64035,6950.213,96.107,573.99,570.165,0.0
55285.0,STARLINK-5332,PAYLOAD,2024-03-09 07:54:20,14.98325902,0.0002777,70.0007,45.8607,266.4195,93.6647,1.0789e-05,3.6e-07,0.0,0 STARLINK-5332,1 55285U 23010S   24069.32940090  .00000036  00000-0  10789-4 0  9997,2 55285  70.0007  45.8607 0002777 266.4195  93.6647 14.98325902 65242,6950.206,96.107,574.001,570.14,0.0
55285.0,STARLINK-5332,PAYLOAD,2024-03-09 15:55:00,14.98319131,0.0002645,70.0011,45.0183,276.7489,83.3369,0.00021272,2.445e-05,0.0,0 STARLINK-5332,1 55285U 23010S   24069.66320174  .00002445  00000-0  21272-3 0  9993,2 55285  70.0011  45.0183 0002645 276.7489  83.3369 14.98319131 65291,6950.227,96.108,573.93,570.253,0.0
55285.0,STARLINK-5332,PAYLOAD,2024-03-10 04:44:04,14.98335701,0.000292,70.0006,43.6723,268.8857,91.1967,4.2215e-05,4.11e-06,0.0,0 STARLINK-5332,1 55285U 23010S   24070.19727306  .00000411  00000-0  42215-4 0  9993,2 55285  70.0006  43.6723 0002920 268.8857  91.1967 14.98335701 64185,6950.175,96.107,574.07,570.011,0.0
55285.0,STARLINK-5332,PAYLOAD,2024-03-10 07:56:20,14.98336483,0.0002918,70.0007,43.3357,269.004,91.0785,5.0676e-05,5.12e-06,0.0,0 STARLINK-5332,1 55285U 23010S   24070.33079198  .00000512  00000-0  50676-4 0  9990,2 55285  70.0007  43.3357 0002918 269.0040  91.0785 14.98336483 65399,6950.173,96.107,574.066,570.01,0.0
55285.0,STARLINK-5332,PAYLOAD,2024-03-10 22:21:33,14.98325177,0.0002879,70.001,41.8206,269.2798,90.8031,2.7899e-05,2.4e-06,0.0,0 STARLINK-5332,1 55285U 23010S   24070.93163938  .00000240  00000-0  27899-4 0  9991,2 55285  70.0010  41.8206 0002879 269.2798  90.8031 14.98325177 65486,6950.208,96.107,574.074,570.072,0.0
55285.0,STARLINK-5332,PAYLOAD,2024-03-11 04:46:05,14.98327049,0.0002854,70.0012,41.148,267.8818,92.2015,3.1426e-05,2.82e-06,0.0,0 STARLINK-5332,1 55285U 23010S   24071.19867857  .00000282  00000-0  31426-4 0  9998,2 55285  70.0012  41.1480 0002854 267.8818  92.2015 14.98327049 64336,6950.202,96.107,574.051,570.083,0.0
55285.0,STARLINK-5332,PAYLOAD,2024-03-11 07:58:21,14.98327821,0.0002944,70.0009,40.8114,271.4476,88.6346,1.419e-05,7.6e-07,0.0,0 STARLINK-5332,1 55285U 23010S   24071.33219893  .00000076  00000-0  14190-4 0  9995,2 55285  70.0009  40.8114 0002944 271.4476  88.6346 14.98327821 65541,6950.2,96.107,574.111,570.018,0.0
55285.0,STARLINK-5332,PAYLOAD,2024-03-12 04:48:06,14.98334367,0.0002895,70.0011,38.6233,271.6098,88.4729,-1.6884e-05,-2.94e-06,0.0,0 STARLINK-5332,1 55285U 23010S   24072.20007527 -.00000294  00000-0 -16884-4 0  9997,2 55285  70.0011  38.6233 0002895 271.6098  88.4729 14.98334367 64486,6950.179,96.107,574.056,570.032,0.0
55285.0,STARLINK-5332,PAYLOAD,2024-03-12 19:13:19,14.98330953,0.0002693,70.0017,37.1083,272.8356,87.2495,1.2215e-05,5.3e-07,0.0,0 STARLINK-5332,1 55285U 23010S   24072.80091602  .00000053  00000-0  12215-4 0  9995,2 55285  70.0017  37.1083 0002693 272.8356  87.2495 14.98330953 65761,6950.19,96.107,573.927,570.183,0.0
55285.0,STARLINK-5332,PAYLOAD,2024-03-13 04:50:07,14.98328091,0.000273,70.0021,36.0973,280.832,79.2532,8.397e-05,9.09e-06,0.0,0 STARLINK-5332,1 55285U 23010S   24073.20147633  .00000909  00000-0  83970-4 0  9992,2 55285  70.0021  36.0973 0002730 280.8320  79.2532 14.98328091 64632,6950.199,96.107,573.961,570.166,0.0
